UNKNOWN                 
1 87280U          26059.24199557  .00000335  00000+0  63826-3 0  9997
2 87280  64.6157  43.6763 0128511 246.1752 112.5772 13.48636740544303
UNKNOWN                 
1 87293U          26059.63484137  .00005788  00000+0  11045-2 0  9997
2 87293  65.8967 297.9870 0427597 317.6744  39.2065 14.19561424625049
UNKNOWN                 
1 87300U          26059.42761507  .00001712  00000+0  12005-2 0  9992
2 87300 100.0983  54.7456 0026751  85.1344 275.2871 13.99764893623987
UNKNOWN                 
1 87304U          26055.06946452  .00002205  00000+0  32596-3 0  9992
2 87304  74.0188 177.3609 0016746 130.9964 229.2662 14.75775931657298
UNKNOWN                 
1 87320U          26058.95885070  .00001226  00000+0  78443-3 0  9992
2 87320  66.5909 260.0308 0420775   5.2633 355.2650 13.70441085604324
UNKNOWN                 
1 87334U          26059.56858575  .00016284  00000+0  90111-2 0  9990
2 87334  90.0068 271.6984 0067625 352.6141   7.4040 14.10064044397609
UNKNOWN                 
1 87335U          26059.56571064  .00016569  00000+0  90229-2 0  9992
2 87335  89.9977 267.8884 0085998 333.1219  26.5522 14.10218876397932
UNKNOWN                 
1 87405U          26059.23499833  .00002667  00000+0  18827-2 0  9995
2 87405  82.7530 358.9626 0059686 105.0236 255.7548 13.96738380621970
UNKNOWN                 
1 87426U          26059.45910420  .00004337  00000+0  16495-2 0  9997
2 87426  65.7823 123.6800 0070352 259.1149 120.3777 14.30556430633705
UNKNOWN                 
1 87448U          26059.42414740  .00001351  00000+0  11045-2 0  9991
2 87448 100.4517 280.5467 0063992   2.7143 357.4347 13.90856034620032
UNKNOWN                 
1 87456U          26053.00608493  .00003756  00000+0  55206-3 0  9997
2 87456  65.7710 261.5960 0509514 328.3661  28.7697 14.15044008621577
UNKNOWN                 
1 87517U          26058.26588621  .00005423  00000+0  14780-2 0  9992
2 87517  65.8234  46.2503 0674630 270.0360 105.7622 13.62010424603333
UNKNOWN                 
1 87541U          26057.83579927  .00000088  00000+0  25095-3 0  9994
2 87541  99.7045 272.9276 0060335  77.8886 347.3893 13.35610795592190
UNKNOWN                 
1 87553U          26059.54484074  .00005145  00000+0  15890-2 0  9995
2 87553  65.6702 167.5064 0692535 192.9918 165.2471 13.54050515601781
UNKNOWN                 
1 87557U          26058.59031559  .00003510  00000+0  77286-2 0  9990
2 87557 101.7678 289.2091 0059809 220.8160 138.8467 13.28476145575235
UNKNOWN                 
1 87561U          26058.62435838 -.00000037  00000+0  50119-4 0  9997
2 87561 101.9963 119.0036 0175894 152.3533   8.5019 12.32165647551904
UNKNOWN                 
1 87565U          26058.44343733  .00001532  00000+0  84316-3 0  9998
2 87565  99.9521  62.5801 0171258 323.4628  35.4951 14.06233624627218
UNKNOWN                 
1 87569U          26059.46635117 -.00000016  00000+0  16653-3 0  9991
2 87569 101.9945 244.8205 0055785 101.0081 288.0892 12.68543894568323
UNKNOWN                 
1 87590U          26057.34773347  .00000541  00000+0  32741-3 0  9996
2 87590  98.7785  97.7213 0027564  71.6501 352.0635 14.10438633164905
UNKNOWN                 
1 87616U          26059.22575774  .00001248  00000+0  44126-2 0  9992
2 87616  66.0382 356.1944 0625488 105.4998  41.6888 12.46961298545890
UNKNOWN                 
1 87624U          26059.28788529  .00008369  00000+0  12740-2 0  9999
2 87624  98.6879   6.7450 0097093   6.7687 353.4804 14.71057943591676
UNKNOWN                 
1 87650U          26039.34859461  .00013131  00000+0  25279-2 0  9991
2 87650 100.2708 233.5291 0030195 112.3966 248.0433 14.63453892 88181
UNKNOWN                 
1 87672U          26059.03988129  .00002141  00000+0  86319-3 0  9999
2 87672  70.8572 199.6084 0057199 156.7595 203.6140 14.28239564635494
UNKNOWN                 
1 87681U          26058.95560310  .00001068  00000+0  11726-2 0  9993
2 87681  66.7358 275.7574 0150167 109.3374 252.4000 13.71304653612422
UNKNOWN                 
1 87690U          26057.66243624  .00003626  00000+0  53801-3 0  9999
2 87690  65.7907 156.4503 0581205   8.5018 352.5398 14.01396765618016
UNKNOWN                 
1 87706U          26059.49239024  .00003220  00000+0  56198-3 0  9991
2 87706  98.6758 252.3001 0104022  27.0052   5.3396 14.65240674589907
UNKNOWN                 
1 87725U          26058.76374409  .00070096  00000+0  45500-2 0  9997
2 87725  82.8711 185.0406 0010695 190.4746 169.6262 15.07691104645487
UNKNOWN                 
1 87730U          26051.10807120  .00000092  00000+0  80311-4 0  9995
2 87730  82.9474 182.7805 0030454 168.2704 191.9168 13.74518887594865
UNKNOWN                 
1 87737U          26058.39991036  .00000020  00000+0  66194-4 0  9994
2 87737  99.3672 293.5054 0133117 350.2228   9.6334 13.72355381614370
UNKNOWN                 
1 87764U          26058.47590604  .00013317  00000+0  21697-2 0  9999
2 87764  65.6716 311.0148 0359303  36.4890 139.8112 14.36320017630131
UNKNOWN                 
1 87771U          26058.34429271  .00000084  00000+0  31593-3 0  9998
2 87771 100.7434 261.1733 0119537 188.6090 171.2973 13.19539478545196
UNKNOWN                 
1 87782U          26059.60909479  .00003465  00000+0  11473-1 0  9992
2 87782 102.3648 306.5620 0051765  46.0957 314.4396 13.00864457578115
