OBJECT_NAME,OBJECT_ID,EPOCH,MEAN_MOTION,ECCENTRICITY,INCLINATION,RA_OF_ASC_NODE,ARG_OF_PERICENTER,MEAN_ANOMALY,EPHEMERIS_TYPE,CLASSIFICATION_TYPE,NORAD_CAT_ID,ELEMENT_SET_NO,REV_AT_EPOCH,BSTAR,MEAN_MOTION_DOT,MEAN_MOTION_DDOT
UNKNOWN,,2026-02-28T05:48:28.417248,13.48636740,.0128511,64.6157,43.6763,246.1752,112.5772,0,U,87280,999,54430,.63826E-3,.335E-5,0
UNKNOWN,,2026-02-28T15:14:10.294368,14.19561424,.0427597,65.8967,297.9870,317.6744,39.2065,0,U,87293,999,62504,.11045E-2,.5788E-4,0
UNKNOWN,,2026-02-28T10:15:45.942048,13.99764893,.0026751,100.0983,54.7456,85.1344,275.2871,0,U,87300,999,62398,.12005E-2,.1712E-4,0
UNKNOWN,,2026-02-24T01:40:01.734528,14.75775931,.0016746,74.0188,177.3609,130.9964,229.2662,0,U,87304,999,65729,.32596E-3,.2205E-4,0
UNKNOWN,,2026-02-27T23:00:44.700480,13.70441085,.0420775,66.5909,260.0308,5.2633,355.2650,0,U,87320,999,60432,.78443E-3,.1226E-4,0
UNKNOWN,,2026-02-28T13:38:45.808800,14.10064044,.0067625,90.0068,271.6984,352.6141,7.4040,0,U,87334,999,39760,.90111E-2,.16284E-3,0
UNKNOWN,,2026-02-28T13:34:37.399296,14.10218876,.0085998,89.9977,267.8884,333.1219,26.5522,0,U,87335,999,39793,.90229E-2,.16569E-3,0
UNKNOWN,,2026-02-28T05:38:23.855712,13.96738380,.0059686,82.7530,358.9626,105.0236,255.7548,0,U,87405,999,62197,.18827E-2,.2667E-4,0
UNKNOWN,,2026-02-28T11:01:06.602880,14.30556430,.0070352,65.7823,123.6800,259.1149,120.3777,0,U,87426,999,63370,.16495E-2,.4337E-4,0
UNKNOWN,,2026-02-28T10:10:46.335360,13.90856034,.0063992,100.4517,280.5467,2.7143,357.4347,0,U,87448,999,62003,.11045E-2,.1351E-4,0
UNKNOWN,,2026-02-22T00:08:45.737952,14.15044008,.0509514,65.7710,261.5960,328.3661,28.7697,0,U,87456,999,62157,.55206E-3,.3756E-4,0
UNKNOWN,,2026-02-27T06:22:52.568544,13.62010424,.067463,65.8234,46.2503,270.0360,105.7622,0,U,87517,999,60333,.1478E-2,.5423E-4,0
UNKNOWN,,2026-02-26T20:03:33.056928,13.35610795,.0060335,99.7045,272.9276,77.8886,347.3893,0,U,87541,999,59219,.25095E-3,.88E-6,0
UNKNOWN,,2026-02-28T13:04:34.239936,13.54050515,.0692535,65.6702,167.5064,192.9918,165.2471,0,U,87553,999,60178,.1589E-2,.5145E-4,0
UNKNOWN,,2026-02-27T14:10:03.266976,13.28476145,.0059809,101.7678,289.2091,220.8160,138.8467,0,U,87557,999,57523,.77286E-2,.351E-4,0
UNKNOWN,,2026-02-27T14:59:04.564032,12.32165647,.0175894,101.9963,119.0036,152.3533,8.5019,0,U,87561,999,55190,.50119E-4,-.37E-6,0
UNKNOWN,,2026-02-27T10:38:32.985312,14.06233624,.0171258,99.9521,62.5801,323.4628,35.4951,0,U,87565,999,62721,.84316E-3,.1532E-4,0
UNKNOWN,,2026-02-28T11:11:32.741088,12.68543894,.0055785,101.9945,244.8205,101.0081,288.0892,0,U,87569,999,56832,.16653E-3,-.16E-6,0
UNKNOWN,,2026-02-26T08:20:44.171808,14.10438633,.0027564,98.7785,97.7213,71.6501,352.0635,0,U,87590,999,16490,.32741E-3,.541E-5,0
UNKNOWN,,2026-02-28T05:25:05.468736,12.46961298,.0625488,66.0382,356.1944,105.4998,41.6888,0,U,87616,999,54589,.44126E-2,.1248E-4,0
UNKNOWN,,2026-02-28T06:54:33.289056,14.71057943,.0097093,98.6879,6.7450,6.7687,353.4804,0,U,87624,999,59167,.1274E-2,.8369E-4,0
UNKNOWN,,2026-02-08T08:21:58.574304,14.63453892,.0030195,100.2708,233.5291,112.3966,248.0433,0,U,87650,999,8818,.25279E-2,.13131E-3,0
UNKNOWN,,2026-02-28T00:57:25.743456,14.28239564,.0057199,70.8572,199.6084,156.7595,203.6140,0,U,87672,999,63549,.86319E-3,.2141E-4,0
UNKNOWN,,2026-02-27T22:56:04.107840,13.71304653,.0150167,66.7358,275.7574,109.3374,252.4000,0,U,87681,999,61242,.11726E-2,.1068E-4,0
UNKNOWN,,2026-02-26T15:53:54.491136,14.01396765,.0581205,65.7907,156.4503,8.5018,352.5398,0,U,87690,999,61801,.53801E-3,.3626E-4,0
UNKNOWN,,2026-02-28T11:49:02.516736,14.65240674,.0104022,98.6758,252.3001,27.0052,5.3396,0,U,87706,999,58990,.56198E-3,.322E-4,0
UNKNOWN,,2026-02-27T18:19:47.489376,15.07691104,.0010695,82.8711,185.0406,190.4746,169.6262,0,U,87725,999,64548,.455E-2,.70096E-3,0
UNKNOWN,,2026-02-20T02:35:37.351680,13.74518887,.0030454,82.9474,182.7805,168.2704,191.9168,0,U,87730,999,59486,.80311E-4,.92E-6,0
UNKNOWN,,2026-02-27T09:35:52.255104,13.72355381,.0133117,99.3672,293.5054,350.2228,9.6334,0,U,87737,999,61437,.66194E-4,.2E-6,0
UNKNOWN,,2026-02-27T11:25:18.281856,14.36320017,.0359303,65.6716,311.0148,36.4890,139.8112,0,U,87764,999,63013,.21697E-2,.13317E-3,0
UNKNOWN,,2026-02-27T08:15:46.890144,13.19539478,.0119537,100.7434,261.1733,188.6090,171.2973,0,U,87771,999,54519,.31593E-3,.84E-6,0
UNKNOWN,,2026-02-28T14:37:05.789856,13.00864457,.0051765,102.3648,306.5620,46.0957,314.4396,0,U,87782,999,57811,.11473E-1,.3465E-4,0
